CCSDS_OMM_VERS = 2.0
CREATION_DATE  = 
ORIGINATOR     = 

OBJECT_NAME    = DELTA 2 R/B(1)
OBJECT_ID      = 1990-008B
CENTER_NAME    = EARTH
REF_FRAME      = TEME
TIME_SYSTEM    = UTC
MEAN_ELEMENT_THEORY = SGP/SGP4

EPOCH          = 2025-12-08T13:13:03.505728
MEAN_MOTION    = 15.44741263
ECCENTRICITY   = .0111717
INCLINATION    = 35.6070
RA_OF_ASC_NODE = 47.5750
ARG_OF_PERICENTER = 140.3529
MEAN_ANOMALY   = 220.5435

EPHEMERIS_TYPE = 0
CLASSIFICATION_TYPE = U
NORAD_CAT_ID   = 20453
ELEMENT_SET_NO = 999
REV_AT_EPOCH   = 91198
BSTAR          = .88443E-3
MEAN_MOTION_DOT = .5443E-3
MEAN_MOTION_DDOT = 0

CCSDS_OMM_VERS = 2.0
CREATION_DATE  = 
ORIGINATOR     = 

OBJECT_NAME    = COSMOS 2058
OBJECT_ID      = 1990-010A
CENTER_NAME    = EARTH
REF_FRAME      = TEME
TIME_SYSTEM    = UTC
MEAN_ELEMENT_THEORY = SGP/SGP4

EPOCH          = 2025-12-08T21:58:26.023008
MEAN_MOTION    = 15.10410948
ECCENTRICITY   = .00082433
INCLINATION    = 82.4654
RA_OF_ASC_NODE = 136.7921
ARG_OF_PERICENTER = 289.4063
MEAN_ANOMALY   = 70.6275

EPHEMERIS_TYPE = 0
CLASSIFICATION_TYPE = U
NORAD_CAT_ID   = 20465
ELEMENT_SET_NO = 999
REV_AT_EPOCH   = 92853
BSTAR          = .37836172E-3
MEAN_MOTION_DOT = .6247E-4
MEAN_MOTION_DDOT = 0

CCSDS_OMM_VERS = 2.0
CREATION_DATE  = 
ORIGINATOR     = 

OBJECT_NAME    = SL-14 R/B
OBJECT_ID      = 1990-010B
CENTER_NAME    = EARTH
REF_FRAME      = TEME
TIME_SYSTEM    = UTC
MEAN_ELEMENT_THEORY = SGP/SGP4

EPOCH          = 2025-12-08T23:14:10.190400
MEAN_MOTION    = 14.83465610
ECCENTRICITY   = .00185001
INCLINATION    = 82.5019
RA_OF_ASC_NODE = 352.5896
ARG_OF_PERICENTER = 236.3540
MEAN_ANOMALY   = 123.5910

EPHEMERIS_TYPE = 0
CLASSIFICATION_TYPE = U
NORAD_CAT_ID   = 20466
ELEMENT_SET_NO = 999
REV_AT_EPOCH   = 91503
BSTAR          = .81981926E-4
MEAN_MOTION_DOT = .699E-5
MEAN_MOTION_DDOT = 0

CCSDS_OMM_VERS = 2.0
CREATION_DATE  = 
ORIGINATOR     = 

OBJECT_NAME    = SL-14 R/B
OBJECT_ID      = 1990-018B
CENTER_NAME    = EARTH
REF_FRAME      = TEME
TIME_SYSTEM    = UTC
MEAN_ELEMENT_THEORY = SGP/SGP4

EPOCH          = 2025-12-08T23:11:28.844448
MEAN_MOTION    = 14.82040077
ECCENTRICITY   = .00173094
INCLINATION    = 82.5206
RA_OF_ASC_NODE = 307.8916
ARG_OF_PERICENTER = 35.2166
MEAN_ANOMALY   = 325.0189

EPHEMERIS_TYPE = 0
CLASSIFICATION_TYPE = U
NORAD_CAT_ID   = 20511
ELEMENT_SET_NO = 999
REV_AT_EPOCH   = 90914
BSTAR          = .99157637E-4
MEAN_MOTION_DOT = .812E-5
MEAN_MOTION_DDOT = 0

CCSDS_OMM_VERS = 2.0
CREATION_DATE  = 
ORIGINATOR     = 

OBJECT_NAME    = HST
OBJECT_ID      = 1990-037B
CENTER_NAME    = EARTH
REF_FRAME      = TEME
TIME_SYSTEM    = UTC
MEAN_ELEMENT_THEORY = SGP/SGP4

EPOCH          = 2025-12-08T06:51:05.840928
MEAN_MOTION    = 15.27955239
ECCENTRICITY   = .00018952
INCLINATION    = 28.4697
RA_OF_ASC_NODE = 302.8053
ARG_OF_PERICENTER = 185.8337
MEAN_ANOMALY   = 174.2236

EPHEMERIS_TYPE = 0
CLASSIFICATION_TYPE = U
NORAD_CAT_ID   = 20580
ELEMENT_SET_NO = 999
REV_AT_EPOCH   = 75931
BSTAR          = .34811453E-3
MEAN_MOTION_DOT = .10003E-3
MEAN_MOTION_DDOT = 0

CCSDS_OMM_VERS = 2.0
CREATION_DATE  = 
ORIGINATOR     = 

OBJECT_NAME    = SL-16 R/B
OBJECT_ID      = 1990-046B
CENTER_NAME    = EARTH
REF_FRAME      = TEME
TIME_SYSTEM    = UTC
MEAN_ELEMENT_THEORY = SGP/SGP4

EPOCH          = 2025-12-08T20:35:16.337472
MEAN_MOTION    = 14.15000904
ECCENTRICITY   = .00118548
INCLINATION    = 70.9987
RA_OF_ASC_NODE = 128.6735
ARG_OF_PERICENTER = 80.5083
MEAN_ANOMALY   = 279.7379

EPHEMERIS_TYPE = 0
CLASSIFICATION_TYPE = U
NORAD_CAT_ID   = 20625
ELEMENT_SET_NO = 999
REV_AT_EPOCH   = 83554
BSTAR          = .59873395E-4
MEAN_MOTION_DOT = .68E-6
MEAN_MOTION_DDOT = 0

CCSDS_OMM_VERS = 2.0
CREATION_DATE  = 
ORIGINATOR     = 

OBJECT_NAME    = COSMOS 2084
OBJECT_ID      = 1990-055A
CENTER_NAME    = EARTH
REF_FRAME      = TEME
TIME_SYSTEM    = UTC
MEAN_ELEMENT_THEORY = SGP/SGP4

EPOCH          = 2025-12-08T23:31:21.152352
MEAN_MOTION    = 15.04980532
ECCENTRICITY   = .00323333
INCLINATION    = 62.7911
RA_OF_ASC_NODE = 284.8031
ARG_OF_PERICENTER = 174.2507
MEAN_ANOMALY   = 185.8972

EPHEMERIS_TYPE = 0
CLASSIFICATION_TYPE = U
NORAD_CAT_ID   = 20663
ELEMENT_SET_NO = 999
REV_AT_EPOCH   = 92266
BSTAR          = .30245106E-3
MEAN_MOTION_DOT = .4156E-4
MEAN_MOTION_DDOT = 0

CCSDS_OMM_VERS = 2.0
CREATION_DATE  = 
ORIGINATOR     = 

OBJECT_NAME    = SL-6 R/B(2)
OBJECT_ID      = 1990-055D
CENTER_NAME    = EARTH
REF_FRAME      = TEME
TIME_SYSTEM    = UTC
MEAN_ELEMENT_THEORY = SGP/SGP4

EPOCH          = 2025-12-08T23:24:16.270848
MEAN_MOTION    = 15.03049402
ECCENTRICITY   = .00123452
INCLINATION    = 62.7824
RA_OF_ASC_NODE = 202.2071
ARG_OF_PERICENTER = 305.9931
MEAN_ANOMALY   = 54.0023

EPHEMERIS_TYPE = 0
CLASSIFICATION_TYPE = U
NORAD_CAT_ID   = 20666
ELEMENT_SET_NO = 999
REV_AT_EPOCH   = 92455
BSTAR          = .20952516E-3
MEAN_MOTION_DOT = .2644E-4
MEAN_MOTION_DDOT = 0

CCSDS_OMM_VERS = 2.0
CREATION_DATE  = 
ORIGINATOR     = 

OBJECT_NAME    = SL-8 R/B
OBJECT_ID      = 1990-078B
CENTER_NAME    = EARTH
REF_FRAME      = TEME
TIME_SYSTEM    = UTC
MEAN_ELEMENT_THEORY = SGP/SGP4

EPOCH          = 2025-12-08T23:02:15.662400
MEAN_MOTION    = 14.85703233
ECCENTRICITY   = .03732041
INCLINATION    = 82.9051
RA_OF_ASC_NODE = 332.6930
ARG_OF_PERICENTER = 318.6327
MEAN_ANOMALY   = 38.7162

EPHEMERIS_TYPE = 0
CLASSIFICATION_TYPE = U
NORAD_CAT_ID   = 20775
ELEMENT_SET_NO = 999
REV_AT_EPOCH   = 79581
BSTAR          = .86071266E-3
MEAN_MOTION_DOT = .27786E-3
MEAN_MOTION_DDOT = 0

CCSDS_OMM_VERS = 2.0
CREATION_DATE  = 
ORIGINATOR     = 

OBJECT_NAME    = SL-8 R/B
OBJECT_ID      = 1991-006B
CENTER_NAME    = EARTH
REF_FRAME      = TEME
TIME_SYSTEM    = UTC
MEAN_ELEMENT_THEORY = SGP/SGP4

EPOCH          = 2025-12-08T20:16:12.071424
MEAN_MOTION    = 13.77489444
ECCENTRICITY   = .00213464
INCLINATION    = 82.9431
RA_OF_ASC_NODE = 237.6100
ARG_OF_PERICENTER = 291.3821
MEAN_ANOMALY   = 209.8492

EPHEMERIS_TYPE = 0
CLASSIFICATION_TYPE = U
NORAD_CAT_ID   = 21088
ELEMENT_SET_NO = 999
REV_AT_EPOCH   = 75156
BSTAR          = .96057534E-4
MEAN_MOTION_DOT = .111E-5
MEAN_MOTION_DDOT = 0

CCSDS_OMM_VERS = 2.0
CREATION_DATE  = 
ORIGINATOR     = 

OBJECT_NAME    = OKEAN-3
OBJECT_ID      = 1991-039A
CENTER_NAME    = EARTH
REF_FRAME      = TEME
TIME_SYSTEM    = UTC
MEAN_ELEMENT_THEORY = SGP/SGP4

EPOCH          = 2025-12-08T22:57:36.492768
MEAN_MOTION    = 15.04077198
ECCENTRICITY   = .00128365
INCLINATION    = 82.5169
RA_OF_ASC_NODE = 64.7088
ARG_OF_PERICENTER = 280.4001
MEAN_ANOMALY   = 79.5778

EPHEMERIS_TYPE = 0
CLASSIFICATION_TYPE = U
NORAD_CAT_ID   = 21397
ELEMENT_SET_NO = 999
REV_AT_EPOCH   = 85139
BSTAR          = .29806874E-3
MEAN_MOTION_DOT = .4159E-4
MEAN_MOTION_DDOT = 0

CCSDS_OMM_VERS = 2.0
CREATION_DATE  = 
ORIGINATOR     = 

OBJECT_NAME    = COSMOS 2151
OBJECT_ID      = 1991-042A
CENTER_NAME    = EARTH
REF_FRAME      = TEME
TIME_SYSTEM    = UTC
MEAN_ELEMENT_THEORY = SGP/SGP4

EPOCH          = 2025-12-08T22:52:59.586816
MEAN_MOTION    = 14.99664928
ECCENTRICITY   = .00128819
INCLINATION    = 82.4960
RA_OF_ASC_NODE = 171.1522
ARG_OF_PERICENTER = 12.2403
MEAN_ANOMALY   = 347.9131

EPHEMERIS_TYPE = 0
CLASSIFICATION_TYPE = U
NORAD_CAT_ID   = 21422
ELEMENT_SET_NO = 999
REV_AT_EPOCH   = 84959
BSTAR          = .20660707E-3
MEAN_MOTION_DOT = .2576E-4
MEAN_MOTION_DDOT = 0

