DELTA 2 R/B(1)          
1 20453U 90008B   25342.55073502  .00054430  00000+0  88443-3 0  9999
2 20453  35.6070  47.5750 0111717 140.3529 220.5435 15.44741263911983
COSMOS 2058             
1 20465U 90010A   25342.91557897  .00006247  00000+0  37836-3 0  9992
2 20465  82.4654 136.7921 0008243 289.4063  70.6275 15.10410948928533
SL-14 R/B               
1 20466U 90010B   25342.96817350  .00000699  00000+0  81982-4 0  9998
2 20466  82.5019 352.5896 0018500 236.3540 123.5910 14.83465610915037
SL-14 R/B               
1 20511U 90018B   25342.96630607  .00000812  00000+0  99158-4 0  9996
2 20511  82.5206 307.8916 0017309  35.2166 325.0189 14.82040077909145
HST                     
1 20580U 90037B   25342.28548427  .00010003  00000+0  34811-3 0  9993
2 20580  28.4697 302.8053 0001895 185.8337 174.2236 15.27955239759310
SL-16 R/B               
1 20625U 90046B   25342.85782798  .00000068  00000+0  59873-4 0  9993
2 20625  70.9987 128.6735 0011854  80.5083 279.7379 14.15000904835545
COSMOS 2084             
1 20663U 90055A   25342.98010593  .00004156  00000+0  30245-3 0  9999
2 20663  62.7911 284.8031 0032333 174.2507 185.8972 15.04980532922663
SL-6 R/B(2)             
1 20666U 90055D   25342.97518832  .00002644  00000+0  20953-3 0  9995
2 20666  62.7824 202.2071 0012345 305.9931  54.0023 15.03049402924557
SL-8 R/B                
1 20775U 90078B   25342.95990350  .00027786  00000+0  86071-3 0  9995
2 20775  82.9051 332.6930 0373204 318.6327  38.7162 14.85703233795816
SL-8 R/B                
1 21088U 91006B   25342.84458416  .00000111  00000+0  96058-4 0  9995
2 21088  82.9431 237.6100 0021346 291.3821 209.8492 13.77489444751568
OKEAN-3                 
1 21397U 91039A   25342.95667237  .00004159  00000+0  29807-3 0  9992
2 21397  82.5169  64.7088 0012836 280.4001  79.5778 15.04077198851394
COSMOS 2151             
1 21422U 91042A   25342.95346744  .00002576  00000+0  20661-3 0  9992
2 21422  82.4960 171.1522 0012881  12.2403 347.9131 14.99664928849594
